STARLINK-32186          
1 60412U 24141Q   26068.72544482 -.00000563  00000+0 -68833-5 0  9991
2 60412  53.1601 242.5968 0001118  84.5128 275.6000 15.30187065 89526
JINJUSAT-1B             
1 63210U 25052A   26068.66363707  .00019955  00000+0  68430-3 0  9998
2 63210  97.4113 325.4613 0005550  82.1930 277.9941 15.30194857 54866
